{
  "type": "FeatureCollection",
  "features": [
    {
      "type": "Feature",
      "properties": {
        "norad_id": 29857,
        "name": "FENGYUN 1C DEB",
        "group": "fengyun-1c-debris",
        "lat": -73.4327907829938,
        "lon": 145.1329340337791,
        "alt_km": 848.9992449893825,
        "timestamp": "2025-12-13T18:50:04.702358+00:00",
        "meta_object_name": "FENGYUN 1C DEB",
        "meta_object_id": "1999-025FB",
        "meta_epoch": "2025-12-13T00:12:29.307456",
        "meta_mean_motion": 13.81881339,
        "meta_eccentricity": 0.01928033,
        "meta_inclination": 98.4233,
        "meta_ra_of_asc_node": 354.3121,
        "meta_arg_of_pericenter": 293.6724,
        "meta_mean_anomaly": 64.4304,
        "meta_ephemeris_type": 0,
        "meta_classification_type": "U",
        "meta_norad_cat_id": 29857,
        "meta_element_set_no": 999,
        "meta_rev_at_epoch": 94779,
        "meta_bstar": 0.0024178726,
        "meta_mean_motion_dot": 2.948e-05,
        "meta_mean_motion_ddot": 0,
        "tle_line1": "1 29857U 99025FB  25347.00867254  .00002948  00000+0  24179-2 0  9996",
        "tle_line2": "2 29857  98.4233 354.3121 0192803 293.6724  64.4304 13.81881339947799"
      },
      "geometry": {
        "type": "Point",
        "coordinates": [
          145.1329340337791,
          -73.4327907829938
        ]
      }
    },
    {
      "type": "Feature",
      "properties": {
        "norad_id": 29858,
        "name": "FENGYUN 1C DEB",
        "group": "fengyun-1c-debris",
        "lat": 33.64772479930806,
        "lon": -84.41701178847956,
        "alt_km": 951.8227034639212,
        "timestamp": "2025-12-13T18:50:04.702368+00:00",
        "meta_object_name": "FENGYUN 1C DEB",
        "meta_object_id": "1999-025FC",
        "meta_epoch": "2025-12-13T06:12:26.513280",
        "meta_mean_motion": 13.77789633,
        "meta_eccentricity": 0.01983653,
        "meta_inclination": 99.2126,
        "meta_ra_of_asc_node": 88.8712,
        "meta_arg_of_pericenter": 62.9896,
        "meta_mean_anomaly": 352.2455,
        "meta_ephemeris_type": 0,
        "meta_classification_type": "U",
        "meta_norad_cat_id": 29858,
        "meta_element_set_no": 999,
        "meta_rev_at_epoch": 94561,
        "meta_bstar": 0.0016301764,
        "meta_mean_motion_dot": 1.845e-05,
        "meta_mean_motion_ddot": 0,
        "tle_line1": "1 29858U 99025FC  25347.25864020  .00001845  00000+0  16302-2 0  9996",
        "tle_line2": "2 29858  99.2126  88.8712 0198365  62.9896 352.2455 13.77789633945614"
      },
      "geometry": {
        "type": "Point",
        "coordinates": [
          -84.41701178847956,
          33.64772479930806
        ]
      }
    },
    {
      "type": "Feature",
      "properties": {
        "norad_id": 29859,
        "name": "FENGYUN 1C DEB",
        "group": "fengyun-1c-debris",
        "lat": 43.95472207509135,
        "lon": 174.24322319040942,
        "alt_km": 1191.2438644483464,
        "timestamp": "2025-12-13T18:50:04.702379+00:00",
        "meta_object_name": "FENGYUN 1C DEB",
        "meta_object_id": "1999-025FD",
        "meta_epoch": "2025-12-13T02:52:36.888096",
        "meta_mean_motion": 13.74037906,
        "meta_eccentricity": 0.02949767,
        "meta_inclination": 98.3356,
        "meta_ra_of_asc_node": 181.7883,
        "meta_arg_of_pericenter": 211.9471,
        "meta_mean_anomaly": 146.3496,
        "meta_ephemeris_type": 0,
        "meta_classification_type": "U",
        "meta_norad_cat_id": 29859,
        "meta_element_set_no": 999,
        "meta_rev_at_epoch": 93985,
        "meta_bstar": 0.0036392532,
        "meta_mean_motion_dot": 4.647e-05,
        "meta_mean_motion_ddot": 0,
        "tle_line1": "1 29859U 99025FD  25347.11987139  .00004647  00000+0  36393-2 0  9994",
        "tle_line2": "2 29859  98.3356 181.7883 0294976 211.9471 146.3496 13.74037906939854"
      },
      "geometry": {
        "type": "Point",
        "coordinates": [
          174.24322319040942,
          43.95472207509135
        ]
      }
    },
    {
      "type": "Feature",
      "properties": {
        "norad_id": 29860,
        "name": "FENGYUN 1C DEB",
        "group": "fengyun-1c-debris",
        "lat": -18.307527676007343,
        "lon": -161.27460654173873,
        "alt_km": 1104.2868300714335,
        "timestamp": "2025-12-13T18:50:04.702390+00:00",
        "meta_object_name": "FENGYUN 1C DEB",
        "meta_object_id": "1999-025FE",
        "meta_epoch": "2025-12-13T02:27:50.217120",
        "meta_mean_motion": 13.77531306,
        "meta_eccentricity": 0.02210166,
        "meta_inclination": 98.6179,
        "meta_ra_of_asc_node": 20.982,
        "meta_arg_of_pericenter": 342.2915,
        "meta_mean_anomaly": 76.8593,
        "meta_ephemeris_type": 0,
        "meta_classification_type": "U",
        "meta_norad_cat_id": 29860,
        "meta_element_set_no": 999,
        "meta_rev_at_epoch": 94144,
        "meta_bstar": 0.003261501,
        "meta_mean_motion_dot": 3.853e-05,
        "meta_mean_motion_ddot": 0,
        "tle_line1": "1 29860U 99025FE  25347.10266455  .00003853  00000+0  32615-2 0  9997",
        "tle_line2": "2 29860  98.6179  20.9820 0221016 342.2915  76.8593 13.77531306941442"
      },
      "geometry": {
        "type": "Point",
        "coordinates": [
          -161.27460654173873,
          -18.307527676007343
        ]
      }
    },
    {
      "type": "Feature",
      "properties": {
        "norad_id": 29865,
        "name": "FENGYUN 1C DEB",
        "group": "fengyun-1c-debris",
        "lat": -30.30271822711962,
        "lon": -96.07532682218832,
        "alt_km": 706.8605772819974,
        "timestamp": "2025-12-13T18:50:04.702401+00:00",
        "meta_object_name": "FENGYUN 1C DEB",
        "meta_object_id": "1999-025FK",
        "meta_epoch": "2025-12-13T08:09:51.664320",
        "meta_mean_motion": 14.82611389,
        "meta_eccentricity": 0.01163829,
        "meta_inclination": 98.9198,
        "meta_ra_of_asc_node": 258.1628,
        "meta_arg_of_pericenter": 139.4117,
        "meta_mean_anomaly": 338.6658,
        "meta_ephemeris_type": 0,
        "meta_classification_type": "U",
        "meta_norad_cat_id": 29865,
        "meta_element_set_no": 999,
        "meta_rev_at_epoch": 767,
        "meta_bstar": 0.0011100957,
        "meta_mean_motion_dot": 0.00010004,
        "meta_mean_motion_ddot": 0,
        "tle_line1": "1 29865U 99025FK  25347.34018130  .00010004  00000+0  11101-2 0  9996",
        "tle_line2": "2 29865  98.9198 258.1628 0116382 139.4117 338.6658 14.82611389  7677"
      },
      "geometry": {
        "type": "Point",
        "coordinates": [
          -96.07532682218832,
          -30.30271822711962
        ]
      }
    },
    {
      "type": "Feature",
      "properties": {
        "norad_id": 29866,
        "name": "FENGYUN 1C DEB",
        "group": "fengyun-1c-debris",
        "lat": 29.703205505276866,
        "lon": -31.13116300100819,
        "alt_km": 815.2499331000226,
        "timestamp": "2025-12-13T18:50:04.702412+00:00",
        "meta_object_name": "FENGYUN 1C DEB",
        "meta_object_id": "1999-025FL",
        "meta_epoch": "2025-12-12T23:18:18.275040",
        "meta_mean_motion": 14.64215448,
        "meta_eccentricity": 0.01943557,
        "meta_inclination": 98.0375,
        "meta_ra_of_asc_node": 332.6976,
        "meta_arg_of_pericenter": 214.132,
        "meta_mean_anomaly": 209.1742,
        "meta_ephemeris_type": 0,
        "meta_classification_type": "U",
        "meta_norad_cat_id": 29866,
        "meta_element_set_no": 999,
        "meta_rev_at_epoch": 330,
        "meta_bstar": 0.0004462599,
        "meta_mean_motion_dot": 3.04e-05,
        "meta_mean_motion_ddot": 0,
        "tle_line1": "1 29866U 99025FL  25346.97104485  .00003040  00000+0  44626-3 0  9995",
        "tle_line2": "2 29866  98.0375 332.6976 0194355 214.1320 209.1742 14.64215448  3301"
      },
      "geometry": {
        "type": "Point",
        "coordinates": [
          -31.13116300100819,
          29.703205505276866
        ]
      }
    },
    {
      "type": "Feature",
      "properties": {
        "norad_id": 29868,
        "name": "FENGYUN 1C DEB",
        "group": "fengyun-1c-debris",
        "lat": -76.47977742315244,
        "lon": 69.05067945940449,
        "alt_km": 614.2142381739677,
        "timestamp": "2025-12-13T18:50:04.702436+00:00",
        "meta_object_name": "FENGYUN 1C DEB",
        "meta_object_id": "1999-025FN",
        "meta_epoch": "2025-12-13T03:12:14.785344",
        "meta_mean_motion": 14.78432907,
        "meta_eccentricity": 0.01967153,
        "meta_inclination": 97.9508,
        "meta_ra_of_asc_node": 32.8696,
        "meta_arg_of_pericenter": 2.7694,
        "meta_mean_anomaly": 56.2222,
        "meta_ephemeris_type": 0,
        "meta_classification_type": "U",
        "meta_norad_cat_id": 29868,
        "meta_element_set_no": 999,
        "meta_rev_at_epoch": 301,
        "meta_bstar": 0.00097385174,
        "meta_mean_motion_dot": 9.781e-05,
        "meta_mean_motion_ddot": 0,
        "tle_line1": "1 29868U 99025FN  25347.13350446  .00009781  00000+0  97385-3 0  9994",
        "tle_line2": "2 29868  97.9508  32.8696 0196715   2.7694  56.2222 14.78432907  3012"
      },
      "geometry": {
        "type": "Point",
        "coordinates": [
          69.05067945940449,
          -76.47977742315244
        ]
      }
    }
  ]
}